[{"OBJECT_NAME":"TPA-1","OBJECT_ID":"2025-135F","EPOCH":"2026-03-09T20:51:31.425408","MEAN_MOTION":15.20645482,"ECCENTRICITY":0.00056519,"INCLINATION":97.4555,"RA_OF_ASC_NODE":184.7205,"ARG_OF_PERICENTER":162.0288,"MEAN_ANOMALY":198.1148,"EPHEMERIS_TYPE":0,"CLASSIFICATION_TYPE":"U","NORAD_CAT_ID":64533,"ELEMENT_SET_NO":999,"REV_AT_EPOCH":3975,"BSTAR":0.00027699607,"MEAN_MOTION_DOT":6.013e-5,"MEAN_MOTION_DDOT":0},{"OBJECT_NAME":"TRANSPORTER-15 OBJECT D","OBJECT_ID":"2025-276D","EPOCH":"2026-03-09T22:32:09.904128","MEAN_MOTION":15.22139186,"ECCENTRICITY":0.00067442,"INCLINATION":97.4144,"RA_OF_ASC_NODE":144.1989,"ARG_OF_PERICENTER":10.0477,"MEAN_ANOMALY":350.0893,"EPHEMERIS_TYPE":0,"CLASSIFICATION_TYPE":"U","NORAD_CAT_ID":66669,"ELEMENT_SET_NO":999,"REV_AT_EPOCH":1536,"BSTAR":0.0013516428,"MEAN_MOTION_DOT":0.00031039,"MEAN_MOTION_DDOT":0}]
